{"type": "FeatureCollection", "features": [ {"type": "Feature", "properties": {"norad_id": 67160, "name": "GALILEO A", "group": "gnss", "lat": 49.011420538324714, "lon": -128.7725553543506, "alt_km": 22952.63418843567, "timestamp": "2025-12-22T08:58:20.605363+00:00", "meta": {"OBJECT_NAME": "GALILEO A", "OBJECT_ID": "2025-302A", "EPOCH": "2025-12-18T03:30:19.486368", "MEAN_MOTION": 1.72906186, "ECCENTRICITY": 0.00084238, "INCLINATION": 54.2406, "RA_OF_ASC_NODE": 107.2544, "ARG_OF_PERICENTER": 237.6458, "MEAN_ANOMALY": 122.2317, "EPHEMERIS_TYPE": 0, "CLASSIFICATION_TYPE": "U", "NORAD_CAT_ID": 67160, "ELEMENT_SET_NO": 999, "REV_AT_EPOCH": 2, "BSTAR": 0, "MEAN_MOTION_DOT": -7e-08, "MEAN_MOTION_DDOT": 0}, "tle": {"line1": "1 67160U 25302A   25352.14605887 -.00000007  00000+0  00000+0 0  9994", "line2": "2 67160  54.2406 107.2544 0008423 237.6458 122.2317  1.72906186    28"}}, "geometry": {"type": "Point", "coordinates": [-128.7725553543506, 49.011420538324714]}}, {"type": "Feature", "properties": {"norad_id": 67161, "name": "GALILEO B", "group": "gnss", "lat": 48.41709709927376, "lon": -127.12819796717996, "alt_km": 22941.325933996093, "timestamp": "2025-12-22T08:58:20.605377+00:00", "meta": {"OBJECT_NAME": "GALILEO B", "OBJECT_ID": "2025-302B", "EPOCH": "2025-12-19T07:14:53.290752", "MEAN_MOTION": 1.72972192, "ECCENTRICITY": 0.00045866, "INCLINATION": 54.2272, "RA_OF_ASC_NODE": 107.1916, "ARG_OF_PERICENTER": 255.0301, "MEAN_ANOMALY": 104.8802, "EPHEMERIS_TYPE": 0, "CLASSIFICATION_TYPE": "U", "NORAD_CAT_ID": 67161, "ELEMENT_SET_NO": 999, "REV_AT_EPOCH": 5, "BSTAR": 0, "MEAN_MOTION_DOT": -5e-08, "MEAN_MOTION_DDOT": 0}, "tle": {"line1": "1 67161U 25302B   25353.30200568 -.00000005  00000+0  00000+0 0  9999", "line2": "2 67161  54.2272 107.1916 0004586 255.0301 104.8802  1.72972192    57"}}, "geometry": {"type": "Point", "coordinates": [-127.12819796717996, 48.41709709927376]}}]}